{
    "links": {
        "self": "http://www.neowsapp.com/rest/v1/neo/3685268?api_key=iIulBulltgU6a56xZRHN4H3l9WmuAYTsLGpBGhQ2"
    },
    "id": "3685268",
    "neo_reference_id": "3685268",
    "name": "(2014 QK390)",
    "designation": "2014 QK390",
    "nasa_jpl_url": "http://ssd.jpl.nasa.gov/sbdb.cgi?sstr=3685268",
    "absolute_magnitude_h": 22.9,
    "estimated_diameter": {
        "kilometers": {
            "estimated_diameter_min": 0.0699125232,
            "estimated_diameter_max": 0.1563291544
        },
        "meters": {
            "estimated_diameter_min": 69.9125232246,
            "estimated_diameter_max": 156.3291544087
        },
        "miles": {
            "estimated_diameter_min": 0.0434416145,
            "estimated_diameter_max": 0.097138403
        },
        "feet": {
            "estimated_diameter_min": 229.3718026961,
            "estimated_diameter_max": 512.8909429502
        }
    },
    "is_potentially_hazardous_asteroid": false,
    "close_approach_data": [
        {
            "close_approach_date": "2014-08-02",
            "close_approach_date_full": "2014-Aug-02 10:11",
            "epoch_date_close_approach": 1406974260000,
            "relative_velocity": {
                "kilometers_per_second": "3.9260000767",
                "kilometers_per_hour": "14133.6002760425",
                "miles_per_hour": "8782.069571522"
            },
            "miss_distance": {
                "astronomical": "0.2490228419",
                "lunar": "96.8698854991",
                "kilometers": "37253286.729586753",
                "miles": "23148118.9812250714"
            },
            "orbiting_body": "Earth"
        }
    ],
    "orbital_data": {
        "orbit_id": "3",
        "orbit_determination_date": "2017-04-06 08:38:57",
        "first_observation_date": "2014-08-26",
        "last_observation_date": "2014-09-02",
        "data_arc_in_days": 7,
        "observations_used": 16,
        "orbit_uncertainty": "8",
        "minimum_orbit_intersection": ".248183",
        "jupiter_tisserand_invariant": "3.477",
        "epoch_osculation": "2456896.5",
        "eccentricity": ".4440336851824845",
        "semi_major_axis": "2.259902583727279",
        "inclination": "6.166989438836276",
        "ascending_node_longitude": "156.7384814873015",
        "orbital_period": "1240.889200462807",
        "perihelion_distance": "1.256429711321437",
        "perihelion_argument": "149.930159278752",
        "aphelion_distance": "3.263375456133121",
        "perihelion_time": "2456867.164359731645",
        "mean_anomaly": "8.510695791911951",
        "mean_motion": ".2901145403358599",
        "equinox": "J2000",
        "orbit_class": {
            "orbit_class_type": "AMO",
            "orbit_class_description": "Near-Earth asteroid orbits similar to that of 1221 Amor",
            "orbit_class_range": "1.017 AU < q (perihelion) < 1.3 AU"
        }
    },
    "is_sentry_object": false
}